NORAD_CAT_ID,OBJECT_NAME,OBJECT_TYPE,EPOCH,MEAN_MOTION,ECCENTRICITY,INCLINATION,RA_OF_ASC_NODE,ARG_OF_PERICENTER,MEAN_ANOMALY,BSTAR,MEAN_MOTION_DOT,MEAN_MOTION_DDOT,TLE_LINE0,TLE_LINE1,TLE_LINE2,SEMIMAJOR_AXIS,PERIOD,APOGEE,PERIGEE,DECAYED
53792.0,STARLINK-4739,PAYLOAD,2023-01-09 10:15:39,15.08840691,0.0002665,53.2184,60.0855,24.5543,335.5576,1.3441e-06,-2.67e-06,0.0,0 STARLINK-4739,1 53792U 22111V   23009.42753696 -.00000267  00000-0  13441-5 0  9993,2 53792  53.2184  60.0855 0002665  24.5543 335.5576 15.08840691 19283,6917.8780000000015,95.438,541.587,537.9,0.0
53792.0,STARLINK-4739,PAYLOAD,2023-01-10 13:17:13,15.08834262,0.0002576,53.2187,55.0302,24.267,335.8443,-9.4453e-05,-1.791e-05,0.0,0 STARLINK-4739,1 53792U 22111V   23010.55362705 -.00001791  00000-0 -94453-4 0  9991,2 53792  53.2187  55.0302 0002576  24.2670 335.8443 15.08834262 18659,6917.898,95.438,541.545,537.981,0.0
53792.0,STARLINK-4739,PAYLOAD,2023-01-10 22:49:31,15.08838573,0.0002384,53.2198,53.2484,30.1558,329.9571,3.1222e-05,2.09e-06,0.0,0 STARLINK-4739,1 53792U 22111V   23010.95105953  .00000209  00000-0  31222-4 0  9991,2 53792  53.2198  53.2484 0002384  30.1558 329.9571 15.08838573 18712,6917.885,95.438,541.399,538.101,0.0
53792.0,STARLINK-4739,PAYLOAD,2023-01-11 09:57:12,15.08854509,0.0002772,53.2186,51.1679,35.1605,324.9569,0.00014185,1.971e-05,0.0,0 STARLINK-4739,1 53792U 22111V   23011.41472426  .00001971  00000-0  14185-3 0  9990,2 53792  53.2186  51.1679 0002772  35.1605 324.9569 15.08854509 18787,6917.835999999998,95.437,541.619,537.783,0.0
53792.0,STARLINK-4739,PAYLOAD,2023-01-11 19:29:32,15.08836568,0.0002481,53.219,49.3804,31.2015,328.9125,-2.1116e-05,-6.24e-06,0.0,0 STARLINK-4739,1 53792U 22111V   23011.81217964 -.00000624  00000-0 -21116-4 0  9997,2 53792  53.2190  49.3804 0002481  31.2015 328.9125 15.08836568 19643,6917.891,95.438,541.472,538.04,0.0
53792.0,STARLINK-4739,PAYLOAD,2023-01-11 22:40:20,15.08809391,0.0002292,53.219,48.7858,33.0229,327.0906,-0.00020841,-3.601e-05,0.0,0 STARLINK-4739,1 53792U 22111V   23011.94468203 -.00003601  00000-0 -20841-3 0  9996,2 53792  53.2190  48.7858 0002292  33.0229 327.0906 15.08809391 18866,6917.974,95.439,541.425,538.253,0.0
53792.0,STARLINK-4739,PAYLOAD,2023-01-12 08:12:39,15.08818248,0.0003074,53.2186,47.0042,24.5687,335.5451,-0.00013768,-2.478e-05,0.0,0 STARLINK-4739,1 53792U 22111V   23012.34212087 -.00002478  00000-0 -13768-3 0  9999,2 53792  53.2186  47.0042 0003074  24.5687 335.5451 15.08818248 18927,6917.946999999999,95.439,541.938,537.685,0.0
53792.0,STARLINK-4739,PAYLOAD,2023-01-12 22:31:07,15.08831347,0.0002316,53.2175,44.3257,57.6369,302.4847,-0.00013653,-2.46e-05,0.0,0 STARLINK-4739,1 53792U 22111V   23012.93827764 -.00002460  00000-0 -13653-3 0  9992,2 53792  53.2175  44.3257 0002316  57.6369 302.4847 15.08831347 19013,6917.906999999998,95.438,541.374,538.17,0.0
53792.0,STARLINK-4739,PAYLOAD,2023-01-13 08:03:25,15.08839946,0.0002343,53.2194,42.5455,44.7324,315.3857,-7.2568e-05,-1.443e-05,0.0,0 STARLINK-4739,1 53792U 22111V   23013.33571181 -.00001443  00000-0 -72568-4 0  9997,2 53792  53.2194  42.5455 0002343  44.7324 315.3857 15.08839946 19075,6917.880999999999,95.438,541.366,538.125,0.0
53792.0,STARLINK-4739,PAYLOAD,2023-01-13 19:11:07,15.08844711,0.0002184,53.2188,40.4608,44.4369,315.6798,-9.8091e-05,-1.849e-05,0.0,0 STARLINK-4739,1 53792U 22111V   23013.79938880 -.00001849  00000-0 -98091-4 0  9999,2 53792  53.2188  40.4608 0002184  44.4369 315.6798 15.08844711 19943,6917.866,95.437,541.242,538.22,0.0
53792.0,STARLINK-4739,PAYLOAD,2023-01-14 19:01:52,15.08852694,0.0001991,53.2213,36.0014,48.8753,311.241,0.00026522,3.937e-05,0.0,0 STARLINK-4739,1 53792U 22111V   23014.79297442  .00003937  00000-0  26522-3 0  9999,2 53792  53.2213  36.0014 0001991  48.8753 311.2410 15.08852694 19294,6917.842,95.437,541.0840000000001,538.3290000000001,0.0
53792.0,STARLINK-4739,PAYLOAD,2023-01-15 01:23:28,15.08818843,0.0002097,53.2194,34.8114,64.5473,295.5736,-0.00012763,-2.318e-05,0.0,0 STARLINK-4739,1 53792U 22111V   23015.05797058 -.00002318  00000-0 -12763-3 0  9993,2 53792  53.2194  34.8114 0002097  64.5473 295.5736 15.08818843 19339,6917.945,95.439,541.261,538.359,0.0
53792.0,STARLINK-4739,PAYLOAD,2023-01-15 10:55:47,15.08824092,0.0002242,53.2182,33.0275,65.1879,294.9346,-0.00012837,-2.33e-05,0.0,0 STARLINK-4739,1 53792U 22111V   23015.45541128 -.00002330  00000-0 -12837-3 0  9998,2 53792  53.2182  33.0275 0002242  65.1879 294.9346 15.08824092 20193,6917.929,95.439,541.345,538.243,0.0
53792.0,STARLINK-4739,PAYLOAD,2023-01-16 07:35:45,15.08863341,0.0001851999999999,53.2184,29.1596,67.1652,292.9536,0.00021561,3.147e-05,0.0,0 STARLINK-4739,1 53792U 22111V   23016.31649421  .00003147  00000-0  21561-3 0  9998,2 53792  53.2184  29.1596 0001852  67.1652 292.9536 15.08863341 19528,6917.809,95.436,540.955,538.393,0.0
53792.0,STARLINK-4739,PAYLOAD,2023-01-16 10:46:31,15.08868659,0.0001918,53.2191,28.5651,65.8953,294.224,0.00017636,2.522e-05,0.0,0 STARLINK-4739,1 53792U 22111V   23016.44897031  .00002522  00000-0  17636-3 0  9998,2 53792  53.2191  28.5651 0001918  65.8953 294.2240 15.08868659 20349,6917.793000000001,95.436,540.985,538.331,0.0
53792.0,STARLINK-4739,PAYLOAD,2023-01-17 01:05:01,15.08828562,0.0002453,53.2184,25.8872,85.2291,274.8981,0.00013727,1.896e-05,0.0,0 STARLINK-4739,1 53792U 22111V   23017.04515254  .00001896  00000-0  13727-3 0  9999,2 53792  53.2184  25.8872 0002453  85.2291 274.8981 15.08828562 19637,6917.915,95.438,541.477,538.0830000000001,0.0
53792.0,STARLINK-4739,PAYLOAD,2023-01-17 07:26:33,15.08832181,0.000244,53.2182,24.7012,87.3103,272.8168,0.00014326,1.992e-05,0.0,0 STARLINK-4739,1 53792U 22111V   23017.31011086  .00001992  00000-0  14326-3 0  9996,2 53792  53.2182  24.7012 0002440  87.3103 272.8168 15.08832181 20471,6917.904,95.438,541.457,538.081,0.0
53792.0,STARLINK-4739,PAYLOAD,2023-01-17 16:58:52,15.08837447,0.0001372,53.2176,22.9175,77.7247,282.3898,-5.5498e-05,-1.171e-05,0.0,0 STARLINK-4739,1 53792U 22111V   23017.70755424 -.00001171  00000-0 -55498-4 0  9997,2 53792  53.2176  22.9175 0001372  77.7247 282.3898 15.08837447 20532,6917.888000000001,95.438,540.702,538.804,0.0
53792.0,STARLINK-4739,PAYLOAD,2023-01-18 00:55:50,15.08831202,0.0001774999999999,53.2199,21.4287,89.0177,271.1019,-0.0003699,-6.169e-05,0.0,0 STARLINK-4739,1 53792U 22111V   23018.03877378 -.00006169  00000-0 -36990-3 0  9994,2 53792  53.2199  21.4287 0001775  89.0177 271.1019 15.08831202 19789,6917.906999999999,95.438,541.0,538.544,0.0
53792.0,STARLINK-4739,PAYLOAD,2023-01-18 08:52:44,15.08844616,0.0001844,53.2201,19.9419,92.1747,267.9456,-0.00022563,-3.878e-05,0.0,0 STARLINK-4739,1 53792U 22111V   23018.36996070 -.00003878  00000-0 -22563-3 0  9996,2 53792  53.2201  19.9419 0001844  92.1747 267.9456 15.08844616 19834,6917.866,95.437,541.007,538.456,0.0
53792.0,STARLINK-4739,PAYLOAD,2023-01-18 16:49:40,15.08844105,0.0001858,53.2202,18.4552,91.5701,268.5504,-0.00020502,-3.55e-05,0.0,0 STARLINK-4739,1 53792U 22111V   23018.70115968 -.00003550  00000-0 -20502-3 0  9991,2 53792  53.2202  18.4552 0001858  91.5701 268.5504 15.08844105 20684,6917.868,95.437,541.018,538.448,0.0
53792.0,STARLINK-4739,PAYLOAD,2023-01-19 10:18:53,15.08847542,0.0001844,53.2194,15.1834,99.1312,260.9889,6.8252e-05,7.98e-06,0.0,0 STARLINK-4739,1 53792U 22111V   23019.42979083  .00000798  00000-0  68252-4 0  9991,2 53792  53.2194  15.1834 0001844  99.1312 260.9889 15.08847542 19990,6917.857,95.437,540.998,538.447,0.0
53792.0,STARLINK-4739,PAYLOAD,2023-01-20 10:09:41,15.0884096,0.000176,53.2209,10.7244,101.0211,259.098,0.0001216,1.648e-05,0.0,0 STARLINK-4739,1 53792U 22111V   23020.42340070  .00001648  00000-0  12160-3 0  9992,2 53792  53.2209  10.7244 0001760 101.0211 259.0980 15.08840960 20148,6917.877,95.437,540.96,538.525,0.0
53792.0,STARLINK-4739,PAYLOAD,2023-01-20 22:52:48,15.08829356,0.0001982,53.2222,8.3461,97.1066,263.0152,-7.4457e-05,-1.473e-05,0.0,0 STARLINK-4739,1 53792U 22111V   23020.95333679 -.00001473  00000-0 -74457-4 0  9993,2 53792  53.2222   8.3461 0001982  97.1066 263.0152 15.08829356 20227,6917.9130000000005,95.438,541.149,538.4069999999999,0.0
53792.0,STARLINK-4739,PAYLOAD,2023-01-21 05:14:19,15.08847548,0.000193,53.2204,7.1555,99.6198,260.5012,-3.1106e-05,-7.83e-06,0.0,0 STARLINK-4739,1 53792U 22111V   23021.21828465 -.00000783  00000-0 -31106-4 0  9992,2 53792  53.2204   7.1555 0001930  99.6198 260.5012 15.08847548 20268,6917.857,95.437,541.057,538.387,0.0
53792.0,STARLINK-4739,PAYLOAD,2023-01-22 08:15:52,15.08854087,0.0001805,53.2208,2.0976,105.3038,254.8154,4.3487e-05,4.04e-06,0.0,0 STARLINK-4739,1 53792U 22111V   23022.34435599  .00000404  00000-0  43487-4 0  9992,2 53792  53.2208   2.0976 0001805 105.3038 254.8154 15.08854087 20430,6917.837,95.437,540.951,538.4540000000001,0.0
53792.0,STARLINK-4739,PAYLOAD,2023-01-23 04:55:55,15.08833527,0.0001924,53.2194,358.2367,84.9281,275.1931,-6.554e-05,-1.331e-05,0.0,0 STARLINK-4739,1 53792U 22111V   23023.20549779 -.00001331  00000-0 -65540-4 0  9990,2 53792  53.2194 358.2367 0001924  84.9281 275.1931 15.08833527 20567,6917.9,95.438,541.096,538.434,0.0
53792.0,STARLINK-4739,PAYLOAD,2023-01-24 06:22:04,15.08855607,0.0001623,53.2208,353.4778,86.8056,273.3122,-3.7758e-05,-8.89e-06,0.0,0 STARLINK-4739,1 53792U 22111V   23024.26532437 -.00000889  00000-0 -37758-4 0  9997,2 53792  53.2208 353.4778 0001623  86.8056 273.3122 15.08855607 20726,6917.8330000000005,95.437,540.82,538.575,0.0
53792.0,STARLINK-4739,PAYLOAD,2023-01-25 06:12:51,15.08837953,0.0001505,53.2207,349.0193,83.1851,276.9312,8.452700000000001e-05,1.057e-05,0.0,0 STARLINK-4739,1 53792U 22111V   23025.25893421  .00001057  00000-0  84527-4 0  9992,2 53792  53.2207 349.0193 0001505  83.1851 276.9312 15.08837953 20879,6917.887,95.438,540.793,538.711,0.0
